CCSDS_OMM_VERS = 2.0
CREATION_DATE  = 
ORIGINATOR     = 

OBJECT_NAME    = UNKNOWN
OBJECT_ID      = 
CENTER_NAME    = EARTH
REF_FRAME      = TEME
TIME_SYSTEM    = UTC
MEAN_ELEMENT_THEORY = SGP/SGP4

EPOCH          = 2026-03-05T10:03:48.856608
MEAN_MOTION    = 13.76901658
ECCENTRICITY   = .0021893
INCLINATION    = 100.0569
RA_OF_ASC_NODE = 57.3222
ARG_OF_PERICENTER = 57.6079
MEAN_ANOMALY   = 302.7183

EPHEMERIS_TYPE = 0
CLASSIFICATION_TYPE = U
NORAD_CAT_ID   = 81893
ELEMENT_SET_NO = 999
REV_AT_EPOCH   = 61545
BSTAR          = .13538E-2
MEAN_MOTION_DOT = .1287E-4
MEAN_MOTION_DDOT = 0

CCSDS_OMM_VERS = 2.0
CREATION_DATE  = 
ORIGINATOR     = 

OBJECT_NAME    = UNKNOWN
OBJECT_ID      = 
CENTER_NAME    = EARTH
REF_FRAME      = TEME
TIME_SYSTEM    = UTC
MEAN_ELEMENT_THEORY = SGP/SGP4

EPOCH          = 2026-03-04T06:07:41.776896
MEAN_MOTION    = 13.20456600
ECCENTRICITY   = .0170293
INCLINATION    = 102.4116
RA_OF_ASC_NODE = 184.7507
ARG_OF_PERICENTER = 42.7859
MEAN_ANOMALY   = 318.6362

EPHEMERIS_TYPE = 0
CLASSIFICATION_TYPE = U
NORAD_CAT_ID   = 81899
ELEMENT_SET_NO = 999
REV_AT_EPOCH   = 58974
BSTAR          = .45307E-2
MEAN_MOTION_DOT = .1922E-4
MEAN_MOTION_DDOT = 0

CCSDS_OMM_VERS = 2.0
CREATION_DATE  = 
ORIGINATOR     = 

OBJECT_NAME    = UNKNOWN
OBJECT_ID      = 
CENTER_NAME    = EARTH
REF_FRAME      = TEME
TIME_SYSTEM    = UTC
MEAN_ELEMENT_THEORY = SGP/SGP4

EPOCH          = 2026-03-03T02:04:07.928832
MEAN_MOTION    = 13.15432327
ECCENTRICITY   = .0843493
INCLINATION    = 65.7062
RA_OF_ASC_NODE = 230.7222
ARG_OF_PERICENTER = 79.7316
MEAN_ANOMALY   = 289.7632

EPHEMERIS_TYPE = 0
CLASSIFICATION_TYPE = U
NORAD_CAT_ID   = 81921
ELEMENT_SET_NO = 999
REV_AT_EPOCH   = 3635
BSTAR          = .80283E-3
MEAN_MOTION_DOT = .1918E-4
MEAN_MOTION_DDOT = 0

CCSDS_OMM_VERS = 2.0
CREATION_DATE  = 
ORIGINATOR     = 

OBJECT_NAME    = UNKNOWN
OBJECT_ID      = 
CENTER_NAME    = EARTH
REF_FRAME      = TEME
TIME_SYSTEM    = UTC
MEAN_ELEMENT_THEORY = SGP/SGP4

EPOCH          = 2026-02-27T20:20:15.658080
MEAN_MOTION    = 12.42640677
ECCENTRICITY   = .0677665
INCLINATION    = 66.4234
RA_OF_ASC_NODE = 4.3155
ARG_OF_PERICENTER = 314.2110
MEAN_ANOMALY   = 69.7902

EPHEMERIS_TYPE = 0
CLASSIFICATION_TYPE = U
NORAD_CAT_ID   = 81946
ELEMENT_SET_NO = 999
REV_AT_EPOCH   = 55746
BSTAR          = .53335E-3
MEAN_MOTION_DOT = .111E-5
MEAN_MOTION_DDOT = 0

CCSDS_OMM_VERS = 2.0
CREATION_DATE  = 
ORIGINATOR     = 

OBJECT_NAME    = UNKNOWN
OBJECT_ID      = 
CENTER_NAME    = EARTH
REF_FRAME      = TEME
TIME_SYSTEM    = UTC
MEAN_ELEMENT_THEORY = SGP/SGP4

EPOCH          = 2026-02-15T06:28:00.562080
MEAN_MOTION    = 14.53453444
ECCENTRICITY   = .0369408
INCLINATION    = 66.0766
RA_OF_ASC_NODE = 348.0426
ARG_OF_PERICENTER = 102.1486
MEAN_ANOMALY   = 262.1250

EPHEMERIS_TYPE = 0
CLASSIFICATION_TYPE = U
NORAD_CAT_ID   = 81947
ELEMENT_SET_NO = 999
REV_AT_EPOCH   = 64039
BSTAR          = .46514E-3
MEAN_MOTION_DOT = .4726E-4
MEAN_MOTION_DDOT = 0

CCSDS_OMM_VERS = 2.0
CREATION_DATE  = 
ORIGINATOR     = 

OBJECT_NAME    = UNKNOWN
OBJECT_ID      = 
CENTER_NAME    = EARTH
REF_FRAME      = TEME
TIME_SYSTEM    = UTC
MEAN_ELEMENT_THEORY = SGP/SGP4

EPOCH          = 2026-03-05T08:37:52.870944
MEAN_MOTION    = 13.95855465
ECCENTRICITY   = .0033377
INCLINATION    = 66.5845
RA_OF_ASC_NODE = 53.5881
ARG_OF_PERICENTER = 20.3688
MEAN_ANOMALY   = 339.8714

EPHEMERIS_TYPE = 0
CLASSIFICATION_TYPE = U
NORAD_CAT_ID   = 81964
ELEMENT_SET_NO = 999
REV_AT_EPOCH   = 62557
BSTAR          = .29999E-3
MEAN_MOTION_DOT = .333E-5
MEAN_MOTION_DDOT = 0

CCSDS_OMM_VERS = 2.0
CREATION_DATE  = 
ORIGINATOR     = 

OBJECT_NAME    = UNKNOWN
OBJECT_ID      = 
CENTER_NAME    = EARTH
REF_FRAME      = TEME
TIME_SYSTEM    = UTC
MEAN_ELEMENT_THEORY = SGP/SGP4

EPOCH          = 2026-03-03T10:06:47.828160
MEAN_MOTION    = 15.13136350
ECCENTRICITY   = .000318
INCLINATION    = 86.6835
RA_OF_ASC_NODE = 118.3770
ARG_OF_PERICENTER = 201.5410
MEAN_ANOMALY   = 158.5696

EPHEMERIS_TYPE = 0
CLASSIFICATION_TYPE = U
NORAD_CAT_ID   = 81969
ELEMENT_SET_NO = 999
REV_AT_EPOCH   = 45236
BSTAR          = .68831E-3
MEAN_MOTION_DOT = .1223E-3
MEAN_MOTION_DDOT = 0

CCSDS_OMM_VERS = 2.0
CREATION_DATE  = 
ORIGINATOR     = 

OBJECT_NAME    = UNKNOWN
OBJECT_ID      = 
CENTER_NAME    = EARTH
REF_FRAME      = TEME
TIME_SYSTEM    = UTC
MEAN_ELEMENT_THEORY = SGP/SGP4

EPOCH          = 2026-03-04T23:05:58.793856
MEAN_MOTION    = 14.04989219
ECCENTRICITY   = .0516129
INCLINATION    = 65.7446
RA_OF_ASC_NODE = 268.6872
ARG_OF_PERICENTER = 256.6593
MEAN_ANOMALY   = 97.6465

EPHEMERIS_TYPE = 0
CLASSIFICATION_TYPE = U
NORAD_CAT_ID   = 81995
ELEMENT_SET_NO = 999
REV_AT_EPOCH   = 61577
BSTAR          = .96399E-3
MEAN_MOTION_DOT = .5163E-4
MEAN_MOTION_DDOT = 0

CCSDS_OMM_VERS = 2.0
CREATION_DATE  = 
ORIGINATOR     = 

OBJECT_NAME    = UNKNOWN
OBJECT_ID      = 
CENTER_NAME    = EARTH
REF_FRAME      = TEME
TIME_SYSTEM    = UTC
MEAN_ELEMENT_THEORY = SGP/SGP4

EPOCH          = 2026-03-04T20:19:58.114560
MEAN_MOTION    = 14.33026740
ECCENTRICITY   = .023036
INCLINATION    = 97.9370
RA_OF_ASC_NODE = 210.7228
ARG_OF_PERICENTER = 196.2055
MEAN_ANOMALY   = 163.1678

EPHEMERIS_TYPE = 0
CLASSIFICATION_TYPE = U
NORAD_CAT_ID   = 82043
ELEMENT_SET_NO = 999
REV_AT_EPOCH   = 58560
BSTAR          = .17997E-2
MEAN_MOTION_DOT = .6584E-4
MEAN_MOTION_DDOT = 0

CCSDS_OMM_VERS = 2.0
CREATION_DATE  = 
ORIGINATOR     = 

OBJECT_NAME    = UNKNOWN
OBJECT_ID      = 
CENTER_NAME    = EARTH
REF_FRAME      = TEME
TIME_SYSTEM    = UTC
MEAN_ELEMENT_THEORY = SGP/SGP4

EPOCH          = 2026-02-15T11:26:49.047648
MEAN_MOTION    = 14.36892613
ECCENTRICITY   = .0090792
INCLINATION    = 98.7424
RA_OF_ASC_NODE = 137.9574
ARG_OF_PERICENTER = 69.8098
MEAN_ANOMALY   = 291.2824

EPHEMERIS_TYPE = 0
CLASSIFICATION_TYPE = U
NORAD_CAT_ID   = 82051
ELEMENT_SET_NO = 999
REV_AT_EPOCH   = 58170
BSTAR          = .20421E-2
MEAN_MOTION_DOT = .6292E-4
MEAN_MOTION_DDOT = 0

CCSDS_OMM_VERS = 2.0
CREATION_DATE  = 
ORIGINATOR     = 

OBJECT_NAME    = UNKNOWN
OBJECT_ID      = 
CENTER_NAME    = EARTH
REF_FRAME      = TEME
TIME_SYSTEM    = UTC
MEAN_ELEMENT_THEORY = SGP/SGP4

EPOCH          = 2026-03-05T03:22:00.661152
MEAN_MOTION    = 14.39453949
ECCENTRICITY   = .0206181
INCLINATION    = 97.7402
RA_OF_ASC_NODE = 137.4107
ARG_OF_PERICENTER = 36.4819
MEAN_ANOMALY   = 325.0218

EPHEMERIS_TYPE = 0
CLASSIFICATION_TYPE = U
NORAD_CAT_ID   = 82073
ELEMENT_SET_NO = 999
REV_AT_EPOCH   = 58697
BSTAR          = .6551E-3
MEAN_MOTION_DOT = .2576E-4
MEAN_MOTION_DDOT = 0

CCSDS_OMM_VERS = 2.0
CREATION_DATE  = 
ORIGINATOR     = 

OBJECT_NAME    = UNKNOWN
OBJECT_ID      = 
CENTER_NAME    = EARTH
REF_FRAME      = TEME
TIME_SYSTEM    = UTC
MEAN_ELEMENT_THEORY = SGP/SGP4

EPOCH          = 2026-03-04T23:34:22.848096
MEAN_MOTION    = 14.15880577
ECCENTRICITY   = .008451
INCLINATION    = 99.0127
RA_OF_ASC_NODE = 137.8384
ARG_OF_PERICENTER = 169.2082
MEAN_ANOMALY   = 191.0930

EPHEMERIS_TYPE = 0
CLASSIFICATION_TYPE = U
NORAD_CAT_ID   = 82139
ELEMENT_SET_NO = 999
REV_AT_EPOCH   = 49175
BSTAR          = .1567E-2
MEAN_MOTION_DOT = .3148E-4
MEAN_MOTION_DDOT = 0

